{
  "type": "FeatureCollection",
  "features": [
    {
      "type": "Feature",
      "properties": {
        "norad_id": 37781,
        "name": "HAIYANG-2A",
        "group": "resource",
        "lat": -9.138855396903415,
        "lon": -4.200708455268062,
        "alt_km": 971.842309570975,
        "timestamp": "2025-12-19T10:50:00.848542+00:00",
        "meta_object_name": "HAIYANG-2A",
        "meta_object_id": "2011-043A",
        "meta_epoch": "2025-12-19T00:25:45.210432",
        "meta_mean_motion": 13.7883541,
        "meta_eccentricity": 0.00016293,
        "meta_inclination": 99.3372,
        "meta_ra_of_asc_node": 353.8559,
        "meta_arg_of_pericenter": 75.8508,
        "meta_mean_anomaly": 284.2824,
        "meta_ephemeris_type": 0,
        "meta_classification_type": "U",
        "meta_norad_cat_id": 37781,
        "meta_element_set_no": 999,
        "meta_rev_at_epoch": 72185,
        "meta_bstar": -1.7805417e-05,
        "meta_mean_motion_dot": -6.2e-07,
        "meta_mean_motion_ddot": 0,
        "tle_line1": "1 37781U 11043A   25353.01788438 -.00000062  00000+0 -17805-4 0  9996",
        "tle_line2": "2 37781  99.3372 353.8559 0001629  75.8508 284.2824 13.78835410721853"
      },
      "geometry": {
        "type": "Point",
        "coordinates": [
          -4.200708455268062,
          -9.138855396903415
        ]
      }
    },
    {
      "type": "Feature",
      "properties": {
        "norad_id": 37791,
        "name": "RASAT",
        "group": "resource",
        "lat": 79.64092010920675,
        "lon": -46.52333194174177,
        "alt_km": 650.8904957577552,
        "timestamp": "2025-12-19T10:50:00.848552+00:00",
        "meta_object_name": "RASAT",
        "meta_object_id": "2011-044D",
        "meta_epoch": "2025-12-18T23:27:54.101664",
        "meta_mean_motion": 14.67917204,
        "meta_eccentricity": 0.00216382,
        "meta_inclination": 98.065,
        "meta_ra_of_asc_node": 82.1429,
        "meta_arg_of_pericenter": 46.2223,
        "meta_mean_anomaly": 68.3766,
        "meta_ephemeris_type": 0,
        "meta_classification_type": "U",
        "meta_norad_cat_id": 37791,
        "meta_element_set_no": 999,
        "meta_rev_at_epoch": 76674,
        "meta_bstar": 6.2487344e-05,
        "meta_mean_motion_dot": 3.1e-06,
        "meta_mean_motion_ddot": 0,
        "tle_line1": "1 37791U 11044D   25352.97770951  .00000310  00000+0  62487-4 0  9993",
        "tle_line2": "2 37791  98.0650  82.1429 0021638  46.2223  68.3766 14.67917204766749"
      },
      "geometry": {
        "type": "Point",
        "coordinates": [
          -46.52333194174177,
          79.64092010920675
        ]
      }
    },
    {
      "type": "Feature",
      "properties": {
        "norad_id": 37841,
        "name": "SRMSAT",
        "group": "resource",
        "lat": 15.869891859939152,
        "lon": 118.84719700672977,
        "alt_km": 841.8591200540741,
        "timestamp": "2025-12-19T10:50:00.848563+00:00",
        "meta_object_name": "SRMSAT",
        "meta_object_id": "2011-058D",
        "meta_epoch": "2025-12-18T14:54:57.461760",
        "meta_mean_motion": 14.11513433,
        "meta_eccentricity": 0.00119022,
        "meta_inclination": 19.9722,
        "meta_ra_of_asc_node": 72.3527,
        "meta_arg_of_pericenter": 18.2035,
        "meta_mean_anomaly": 128.7708,
        "meta_ephemeris_type": 0,
        "meta_classification_type": "U",
        "meta_norad_cat_id": 37841,
        "meta_element_set_no": 999,
        "meta_rev_at_epoch": 73227,
        "meta_bstar": 6.9468699e-05,
        "meta_mean_motion_dot": 3.93e-06,
        "meta_mean_motion_ddot": 0,
        "tle_line1": "1 37841U 11058D   25352.62149840  .00000393  00000+0  69469-4 0  9991",
        "tle_line2": "2 37841  19.9722  72.3527 0011902  18.2035 128.7708 14.11513433732273"
      },
      "geometry": {
        "type": "Point",
        "coordinates": [
          118.84719700672977,
          15.869891859939152
        ]
      }
    },
    {
      "type": "Feature",
      "properties": {
        "norad_id": 38012,
        "name": "PLEIADES 1A",
        "group": "resource",
        "lat": 25.518022452001464,
        "lon": 62.178210251915395,
        "alt_km": 696.4253135319132,
        "timestamp": "2025-12-19T10:50:00.848574+00:00",
        "meta_object_name": "PLEIADES 1A",
        "meta_object_id": "2011-076F",
        "meta_epoch": "2025-12-18T23:32:59.795232",
        "meta_mean_motion": 14.58566465,
        "meta_eccentricity": 0.00011594,
        "meta_inclination": 98.1822,
        "meta_ra_of_asc_node": 65.6537,
        "meta_arg_of_pericenter": 73.8599,
        "meta_mean_anomaly": 4.8282,
        "meta_ephemeris_type": 0,
        "meta_classification_type": "U",
        "meta_norad_cat_id": 38012,
        "meta_element_set_no": 999,
        "meta_rev_at_epoch": 74572,
        "meta_bstar": 5.6778616e-05,
        "meta_mean_motion_dot": 2.18e-06,
        "meta_mean_motion_ddot": 0,
        "tle_line1": "1 38012U 11076F   25352.98124763  .00000218  00000+0  56779-4 0  9994",
        "tle_line2": "2 38012  98.1822  65.6537 0001159  73.8599   4.8282 14.58566465745724"
      },
      "geometry": {
        "type": "Point",
        "coordinates": [
          62.178210251915395,
          25.518022452001464
        ]
      }
    },
    {
      "type": "Feature",
      "properties": {
        "norad_id": 38038,
        "name": "ZIYUAN 1-02C (ZY 1-02C)",
        "group": "resource",
        "lat": 21.565377514402467,
        "lon": -117.29691611627612,
        "alt_km": 760.6518356857614,
        "timestamp": "2025-12-19T10:50:00.848584+00:00",
        "meta_object_name": "ZIYUAN 1-02C (ZY 1-02C)",
        "meta_object_id": "2011-079A",
        "meta_epoch": "2025-12-18T22:57:18.279648",
        "meta_mean_motion": 14.38018518,
        "meta_eccentricity": 0.00073879,
        "meta_inclination": 98.4332,
        "meta_ra_of_asc_node": 58.8559,
        "meta_arg_of_pericenter": 121.9431,
        "meta_mean_anomaly": 355.3418,
        "meta_ephemeris_type": 0,
        "meta_classification_type": "U",
        "meta_norad_cat_id": 38038,
        "meta_element_set_no": 999,
        "meta_rev_at_epoch": 73330,
        "meta_bstar": 0.00012945234,
        "meta_mean_motion_dot": 3.49e-06,
        "meta_mean_motion_ddot": 0,
        "tle_line1": "1 38038U 11079A   25352.95646157  .00000349  00000+0  12945-3 0  9999",
        "tle_line2": "2 38038  98.4332  58.8559 0007387 121.9431 355.3418 14.38018518733303"
      },
      "geometry": {
        "type": "Point",
        "coordinates": [
          -117.29691611627612,
          21.565377514402467
        ]
      }
    },
    {
      "type": "Feature",
      "properties": {
        "norad_id": 38338,
        "name": "ARIRANG-3 (KOMPSAT-3)",
        "group": "resource",
        "lat": -0.5873370903936702,
        "lon": -51.82233231981484,
        "alt_km": 688.1427355527467,
        "timestamp": "2025-12-19T10:50:00.848594+00:00",
        "meta_object_name": "ARIRANG-3 (KOMPSAT-3)",
        "meta_object_id": "2012-025B",
        "meta_epoch": "2025-12-18T23:20:10.213152",
        "meta_mean_motion": 14.61720675,
        "meta_eccentricity": 0.00049754,
        "meta_inclination": 98.3331,
        "meta_ra_of_asc_node": 307.6089,
        "meta_arg_of_pericenter": 317.2302,
        "meta_mean_anomaly": 42.8511,
        "meta_ephemeris_type": 0,
        "meta_classification_type": "U",
        "meta_norad_cat_id": 38338,
        "meta_element_set_no": 999,
        "meta_rev_at_epoch": 72501,
        "meta_bstar": 9.5815224e-05,
        "meta_mean_motion_dot": 4.29e-06,
        "meta_mean_motion_ddot": 0,
        "tle_line1": "1 38338U 12025B   25352.97234043  .00000429  00000+0  95815-4 0  9990",
        "tle_line2": "2 38338  98.3331 307.6089 0004975 317.2302  42.8511 14.61720675725015"
      },
      "geometry": {
        "type": "Point",
        "coordinates": [
          -51.82233231981484,
          -0.5873370903936702
        ]
      }
    },
    {
      "type": "Feature",
      "properties": {
        "norad_id": 38709,
        "name": "EXACTVIEW-1 (ADS-1B)",
        "group": "resource",
        "lat": -9.42543116978891,
        "lon": -79.51930476753944,
        "alt_km": 818.9459417170683,
        "timestamp": "2025-12-19T10:50:00.848604+00:00",
        "meta_object_name": "EXACTVIEW-1 (ADS-1B)",
        "meta_object_id": "2012-039C",
        "meta_epoch": "2025-12-18T22:08:59.931168",
        "meta_mean_motion": 14.24910425,
        "meta_eccentricity": 0.00103551,
        "meta_inclination": 98.9638,
        "meta_ra_of_asc_node": 101.4427,
        "meta_arg_of_pericenter": 335.9691,
        "meta_mean_anomaly": 24.1003,
        "meta_ephemeris_type": 0,
        "meta_classification_type": "U",
        "meta_norad_cat_id": 38709,
        "meta_element_set_no": 999,
        "meta_rev_at_epoch": 69703,
        "meta_bstar": 6.5007668e-05,
        "meta_mean_motion_dot": 1.05e-06,
        "meta_mean_motion_ddot": 0,
        "tle_line1": "1 38709U 12039C   25352.92291587  .00000105  00000+0  65008-4 0  9990",
        "tle_line2": "2 38709  98.9638 101.4427 0010355 335.9691  24.1003 14.24910425697038"
      },
      "geometry": {
        "type": "Point",
        "coordinates": [
          -79.51930476753944,
          -9.42543116978891
        ]
      }
    }
  ]
}